ONEWEB-0134             
1 47280U 20100Y   24072.18165732  .00000497  00000+0  13461-2 0  9998
2 47280  87.9021 155.2565 0001427 109.0162 251.1121 13.12437860156237
ONEWEB-0135             
1 47281U 20100Z   24071.46376791  .00000320  00000+0  85470-3 0  9993
2 47281  87.9033 155.4090 0001822 104.0919 256.0412 13.12441624156162
ONEWEB-0136             
1 47282U 20100AA  24071.48599477 -.00000385  00000+0 -11065-2 0  9995
2 47282  87.9028 155.3728 0001374 109.1763 250.9514 13.12442357156091
ONEWEB-0137             
1 47283U 20100AB  24072.20549010  .00000320  00000+0  85423-3 0  9992
2 47283  87.9026 155.2599 0001954 110.3507 249.7831 13.12442713156093
ONEWEB-0138             
1 47284U 20100AC  24072.18483370 -.00000256  00000+0 -74559-3 0  9994
2 47284  87.9025 155.2762 0001793 107.0974 253.0351 13.12443195156176
ONEWEB-0139             
1 47285U 20100AD  24071.24140832  .00000044  00000+0  86104-4 0  9997
2 47285  87.9032 155.4311 0001841 104.7740 255.3593 13.12441456156122
ONEWEB-0140             
1 47286U 20100AE  24071.26363767 -.00000346  00000+0 -99577-3 0  9998
2 47286  87.9027 155.4339 0001748 105.9823 254.1498 13.12442832156094
ONEWEB-0141             
1 47287U 20100AF  24071.51220520  .00000156  00000+0  39869-3 0  9991
2 47287  87.9030 155.3829 0002175 106.3548 253.7819 13.12443313156116
